<?xml version="1.0" encoding="UTF-8" standalone="no" ?>
<gpx xmlns="http://www.topografix.com/GPX/1/1" creator="http://nakarte.me" xmlns:xsi="http://www.w3.org/2001/XMLSchema-instance" xsi:schemaLocation="http://www.topografix.com/GPX/1/1 http://www.topografix.com/GPX/1/1/gpx.xsd" version="1.1">
	<metadata>
		<time>2026-09-06T19:28:39.872Z</time>
	</metadata>
	<trk>
		<name>Ruler</name>
		<trkseg>
			<trkpt lat="55.575890" lon="37.957558"><time>1970-01-01T00:00:01.000Z</time></trkpt>
			<trkpt lat="55.574919" lon="37.954811"><time>1970-01-01T00:00:01.000Z</time></trkpt>
			<trkpt lat="55.574070" lon="37.953524"><time>1970-01-01T00:00:01.000Z</time></trkpt>
			<trkpt lat="55.572978" lon="37.954039"><time>1970-01-01T00:00:01.000Z</time></trkpt>
			<trkpt lat="55.572444" lon="37.953996"><time>1970-01-01T00:00:01.000Z</time></trkpt>
			<trkpt lat="55.572493" lon="37.950777"><time>1970-01-01T00:00:01.000Z</time></trkpt>
			<trkpt lat="55.572663" lon="37.949018"><time>1970-01-01T00:00:01.000Z</time></trkpt>
			<trkpt lat="55.574410" lon="37.949060"><time>1970-01-01T00:00:01.000Z</time></trkpt>
			<trkpt lat="55.575307" lon="37.947988"><time>1970-01-01T00:00:01.000Z</time></trkpt>
			<trkpt lat="55.576448" lon="37.945370"><time>1970-01-01T00:00:01.000Z</time></trkpt>
			<trkpt lat="55.577248" lon="37.944683"><time>1970-01-01T00:00:01.000Z</time></trkpt>
			<trkpt lat="55.577709" lon="37.943653"><time>1970-01-01T00:00:01.000Z</time></trkpt>
			<trkpt lat="55.578922" lon="37.943138"><time>1970-01-01T00:00:01.000Z</time></trkpt>
			<trkpt lat="55.580547" lon="37.943524"><time>1970-01-01T00:00:01.000Z</time></trkpt>
			<trkpt lat="55.581324" lon="37.943524"><time>1970-01-01T00:00:01.000Z</time></trkpt>
			<trkpt lat="55.582148" lon="37.942537"><time>1970-01-01T00:00:01.000Z</time></trkpt>
			<trkpt lat="55.582371" lon="37.942336"><time>1970-01-01T00:00:01.000Z</time></trkpt>
			<trkpt lat="55.582611" lon="37.941595"><time>1970-01-01T00:00:01.000Z</time></trkpt>
			<trkpt lat="55.582928" lon="37.941255"><time>1970-01-01T00:00:01.000Z</time></trkpt>
			<trkpt lat="55.583302" lon="37.940501"><time>1970-01-01T00:00:01.000Z</time></trkpt>
			<trkpt lat="55.583857" lon="37.939455"><time>1970-01-01T00:00:01.000Z</time></trkpt>
			<trkpt lat="55.584391" lon="37.938066"><time>1970-01-01T00:00:01.000Z</time></trkpt>
			<trkpt lat="55.584494" lon="37.936682"><time>1970-01-01T00:00:01.000Z</time></trkpt>
			<trkpt lat="55.584312" lon="37.934160"><time>1970-01-01T00:00:01.000Z</time></trkpt>
			<trkpt lat="55.584183" lon="37.931482"><time>1970-01-01T00:00:01.000Z</time></trkpt>
			<trkpt lat="55.585622" lon="37.929738"><time>1970-01-01T00:00:01.000Z</time></trkpt>
			<trkpt lat="55.586944" lon="37.928043"><time>1970-01-01T00:00:01.000Z</time></trkpt>
			<trkpt lat="55.587168" lon="37.925865"><time>1970-01-01T00:00:01.000Z</time></trkpt>
			<trkpt lat="55.588231" lon="37.927092"><time>1970-01-01T00:00:01.000Z</time></trkpt>
			<trkpt lat="55.588569" lon="37.926543"><time>1970-01-01T00:00:01.000Z</time></trkpt>
			<trkpt lat="55.589017" lon="37.927225"><time>1970-01-01T00:00:01.000Z</time></trkpt>
			<trkpt lat="55.589314" lon="37.927562"><time>1970-01-01T00:00:01.000Z</time></trkpt>
			<trkpt lat="55.589605" lon="37.927186"><time>1970-01-01T00:00:01.000Z</time></trkpt>
			<trkpt lat="55.589666" lon="37.925802"><time>1970-01-01T00:00:01.000Z</time></trkpt>
			<trkpt lat="55.589981" lon="37.925373"><time>1970-01-01T00:00:01.000Z</time></trkpt>
			<trkpt lat="55.590567" lon="37.924170"><time>1970-01-01T00:00:01.000Z</time></trkpt>
			<trkpt lat="55.590927" lon="37.923399"><time>1970-01-01T00:00:01.000Z</time></trkpt>
			<trkpt lat="55.591224" lon="37.921747"><time>1970-01-01T00:00:01.000Z</time></trkpt>
			<trkpt lat="55.592291" lon="37.920878"><time>1970-01-01T00:00:01.000Z</time></trkpt>
			<trkpt lat="55.593019" lon="37.918711"><time>1970-01-01T00:00:01.000Z</time></trkpt>
			<trkpt lat="55.593443" lon="37.918110"><time>1970-01-01T00:00:01.000Z</time></trkpt>
			<trkpt lat="55.594183" lon="37.917938"><time>1970-01-01T00:00:01.000Z</time></trkpt>
			<trkpt lat="55.594959" lon="37.918346"><time>1970-01-01T00:00:01.000Z</time></trkpt>
			<trkpt lat="55.596654" lon="37.919578"><time>1970-01-01T00:00:01.000Z</time></trkpt>
			<trkpt lat="55.598681" lon="37.922015"><time>1970-01-01T00:00:01.000Z</time></trkpt>
			<trkpt lat="55.599493" lon="37.922273"><time>1970-01-01T00:00:01.000Z</time></trkpt>
			<trkpt lat="55.599808" lon="37.923067"><time>1970-01-01T00:00:01.000Z</time></trkpt>
			<trkpt lat="55.600948" lon="37.923474"><time>1970-01-01T00:00:01.000Z</time></trkpt>
			<trkpt lat="55.601954" lon="37.926843"><time>1970-01-01T00:00:01.000Z</time></trkpt>
			<trkpt lat="55.603105" lon="37.928624"><time>1970-01-01T00:00:01.000Z</time></trkpt>
			<trkpt lat="55.604136" lon="37.929010"><time>1970-01-01T00:00:01.000Z</time></trkpt>
			<trkpt lat="55.604075" lon="37.930491"><time>1970-01-01T00:00:01.000Z</time></trkpt>
			<trkpt lat="55.603881" lon="37.936757"><time>1970-01-01T00:00:01.000Z</time></trkpt>
			<trkpt lat="55.604960" lon="37.938066"><time>1970-01-01T00:00:01.000Z</time></trkpt>
			<trkpt lat="55.606417" lon="37.937679"><time>1970-01-01T00:00:01.000Z</time></trkpt>
			<trkpt lat="55.605493" lon="37.938173"><time>1970-01-01T00:00:01.000Z</time></trkpt>
			<trkpt lat="55.605118" lon="37.939696"><time>1970-01-01T00:00:01.000Z</time></trkpt>
			<trkpt lat="55.605033" lon="37.940404"><time>1970-01-01T00:00:01.000Z</time></trkpt>
			<trkpt lat="55.603821" lon="37.940662"><time>1970-01-01T00:00:01.000Z</time></trkpt>
			<trkpt lat="55.603287" lon="37.940297"><time>1970-01-01T00:00:01.000Z</time></trkpt>
			<trkpt lat="55.602972" lon="37.939310"><time>1970-01-01T00:00:01.000Z</time></trkpt>
			<trkpt lat="55.599869" lon="37.939439"><time>1970-01-01T00:00:01.000Z</time></trkpt>
			<trkpt lat="55.600017" lon="37.938744"><time>1970-01-01T00:00:01.000Z</time></trkpt>
			<trkpt lat="55.588556" lon="37.940040"><time>1970-01-01T00:00:01.000Z</time></trkpt>
			<trkpt lat="55.588120" lon="37.940941"><time>1970-01-01T00:00:01.000Z</time></trkpt>
			<trkpt lat="55.587223" lon="37.941971"><time>1970-01-01T00:00:01.000Z</time></trkpt>
			<trkpt lat="55.586471" lon="37.943130"><time>1970-01-01T00:00:01.000Z</time></trkpt>
			<trkpt lat="55.585961" lon="37.945833"><time>1970-01-01T00:00:01.000Z</time></trkpt>
			<trkpt lat="55.585767" lon="37.947893"><time>1970-01-01T00:00:01.000Z</time></trkpt>
			<trkpt lat="55.585476" lon="37.950339"><time>1970-01-01T00:00:01.000Z</time></trkpt>
			<trkpt lat="55.587611" lon="37.952185"><time>1970-01-01T00:00:01.000Z</time></trkpt>
			<trkpt lat="55.593819" lon="37.951798"><time>1970-01-01T00:00:01.000Z</time></trkpt>
			<trkpt lat="55.594837" lon="37.950447"><time>1970-01-01T00:00:01.000Z</time></trkpt>
			<trkpt lat="55.595989" lon="37.949653"><time>1970-01-01T00:00:01.000Z</time></trkpt>
			<trkpt lat="55.596729" lon="37.948730"><time>1970-01-01T00:00:01.000Z</time></trkpt>
			<trkpt lat="55.597929" lon="37.949073"><time>1970-01-01T00:00:01.000Z</time></trkpt>
			<trkpt lat="55.598826" lon="37.949159"><time>1970-01-01T00:00:01.000Z</time></trkpt>
			<trkpt lat="55.599735" lon="37.948816"><time>1970-01-01T00:00:01.000Z</time></trkpt>
			<trkpt lat="55.601699" lon="37.948022"><time>1970-01-01T00:00:01.000Z</time></trkpt>
			<trkpt lat="55.602572" lon="37.948322"><time>1970-01-01T00:00:01.000Z</time></trkpt>
			<trkpt lat="55.603687" lon="37.947679"><time>1970-01-01T00:00:01.000Z</time></trkpt>
			<trkpt lat="55.603105" lon="37.945361"><time>1970-01-01T00:00:01.000Z</time></trkpt>
			<trkpt lat="55.603736" lon="37.945104"><time>1970-01-01T00:00:01.000Z</time></trkpt>
			<trkpt lat="55.604221" lon="37.947679"><time>1970-01-01T00:00:01.000Z</time></trkpt>
			<trkpt lat="55.605239" lon="37.947679"><time>1970-01-01T00:00:01.000Z</time></trkpt>
			<trkpt lat="55.608342" lon="37.943430"><time>1970-01-01T00:00:01.000Z</time></trkpt>
			<trkpt lat="55.610451" lon="37.940898"><time>1970-01-01T00:00:01.000Z</time></trkpt>
			<trkpt lat="55.612147" lon="37.941070"><time>1970-01-01T00:00:01.000Z</time></trkpt>
			<trkpt lat="55.612462" lon="37.941113"><time>1970-01-01T00:00:01.000Z</time></trkpt>
			<trkpt lat="55.613699" lon="37.945833"><time>1970-01-01T00:00:01.000Z</time></trkpt>
			<trkpt lat="55.612099" lon="37.946992"><time>1970-01-01T00:00:01.000Z</time></trkpt>
			<trkpt lat="55.611396" lon="37.949309"><time>1970-01-01T00:00:01.000Z</time></trkpt>
			<trkpt lat="55.612123" lon="37.953386"><time>1970-01-01T00:00:01.000Z</time></trkpt>
			<trkpt lat="55.608172" lon="37.958064"><time>1970-01-01T00:00:01.000Z</time></trkpt>
			<trkpt lat="55.606881" lon="37.959158"><time>1970-01-01T00:00:01.000Z</time></trkpt>
			<trkpt lat="55.606118" lon="37.959319"><time>1970-01-01T00:00:01.000Z</time></trkpt>
			<trkpt lat="55.605564" lon="37.959995"><time>1970-01-01T00:00:01.000Z</time></trkpt>
			<trkpt lat="55.605112" lon="37.960596"><time>1970-01-01T00:00:01.000Z</time></trkpt>
			<trkpt lat="55.604481" lon="37.961358"><time>1970-01-01T00:00:01.000Z</time></trkpt>
			<trkpt lat="55.604196" lon="37.961057"><time>1970-01-01T00:00:01.000Z</time></trkpt>
			<trkpt lat="55.604045" lon="37.960188"><time>1970-01-01T00:00:01.000Z</time></trkpt>
			<trkpt lat="55.603330" lon="37.960006"><time>1970-01-01T00:00:01.000Z</time></trkpt>
			<trkpt lat="55.603154" lon="37.960403"><time>1970-01-01T00:00:01.000Z</time></trkpt>
			<trkpt lat="55.602481" lon="37.959738"><time>1970-01-01T00:00:01.000Z</time></trkpt>
			<trkpt lat="55.602039" lon="37.959845"><time>1970-01-01T00:00:01.000Z</time></trkpt>
			<trkpt lat="55.601893" lon="37.960296"><time>1970-01-01T00:00:01.000Z</time></trkpt>
			<trkpt lat="55.601499" lon="37.962570"><time>1970-01-01T00:00:01.000Z</time></trkpt>
			<trkpt lat="55.600966" lon="37.962441"><time>1970-01-01T00:00:01.000Z</time></trkpt>
			<trkpt lat="55.600560" lon="37.963815"><time>1970-01-01T00:00:01.000Z</time></trkpt>
			<trkpt lat="55.596241" lon="37.963845"><time>1970-01-01T00:00:01.000Z</time></trkpt>
			<trkpt lat="55.590460" lon="37.963922"><time>1970-01-01T00:00:01.000Z</time></trkpt>
			<trkpt lat="55.589265" lon="37.964008"><time>1970-01-01T00:00:01.000Z</time></trkpt>
			<trkpt lat="55.585362" lon="37.963978"><time>1970-01-01T00:00:01.000Z</time></trkpt>
			<trkpt lat="55.584967" lon="37.966175"><time>1970-01-01T00:00:01.000Z</time></trkpt>
			<trkpt lat="55.585319" lon="37.970037"><time>1970-01-01T00:00:01.000Z</time></trkpt>
			<trkpt lat="55.585040" lon="37.973299"><time>1970-01-01T00:00:01.000Z</time></trkpt>
			<trkpt lat="55.585549" lon="37.975659"><time>1970-01-01T00:00:01.000Z</time></trkpt>
			<trkpt lat="55.584785" lon="37.979822"><time>1970-01-01T00:00:01.000Z</time></trkpt>
			<trkpt lat="55.583245" lon="37.982054"><time>1970-01-01T00:00:01.000Z</time></trkpt>
			<trkpt lat="55.582335" lon="37.981668"><time>1970-01-01T00:00:01.000Z</time></trkpt>
			<trkpt lat="55.581971" lon="37.978449"><time>1970-01-01T00:00:01.000Z</time></trkpt>
			<trkpt lat="55.582105" lon="37.970316"><time>1970-01-01T00:00:01.000Z</time></trkpt>
			<trkpt lat="55.582517" lon="37.964373"><time>1970-01-01T00:00:01.000Z</time></trkpt>
			<trkpt lat="55.582080" lon="37.963343"><time>1970-01-01T00:00:01.000Z</time></trkpt>
			<trkpt lat="55.581171" lon="37.962377"><time>1970-01-01T00:00:01.000Z</time></trkpt>
			<trkpt lat="55.579570" lon="37.962377"><time>1970-01-01T00:00:01.000Z</time></trkpt>
			<trkpt lat="55.577835" lon="37.962141"><time>1970-01-01T00:00:01.000Z</time></trkpt>
			<trkpt lat="55.577932" lon="37.961733"><time>1970-01-01T00:00:01.000Z</time></trkpt>
			<trkpt lat="55.577787" lon="37.960854"><time>1970-01-01T00:00:01.000Z</time></trkpt>
			<trkpt lat="55.577020" lon="37.960064"><time>1970-01-01T00:00:01.000Z</time></trkpt>
			<trkpt lat="55.576404" lon="37.958407"><time>1970-01-01T00:00:01.000Z</time></trkpt>
			<trkpt lat="55.576006" lon="37.957811"><time>1970-01-01T00:00:01.000Z</time></trkpt>
		</trkseg>
	</trk>
</gpx>