<?xml version="1.0" encoding="UTF-8"?>
<kml xmlns="http://www.opengis.net/kml/2.2">
	<Document>
		<name>Ruler</name>
		<Placemark>
			<name>Line 1</name>
			<LineString>
				<tessellate>1</tessellate>
				<coordinates>
					37.957558,55.575890
					37.954811,55.574919
					37.953524,55.574070
					37.954039,55.572978
					37.953996,55.572444
					37.950777,55.572493
					37.949018,55.572663
					37.949060,55.574410
					37.947988,55.575307
					37.945370,55.576448
					37.944683,55.577248
					37.943653,55.577709
					37.943138,55.578922
					37.943524,55.580547
					37.943524,55.581324
					37.942537,55.582148
					37.942336,55.582371
					37.941595,55.582611
					37.941255,55.582928
					37.940501,55.583302
					37.939455,55.583857
					37.938066,55.584391
					37.936682,55.584494
					37.934160,55.584312
					37.931482,55.584183
					37.929738,55.585622
					37.928043,55.586944
					37.925865,55.587168
					37.927092,55.588231
					37.926543,55.588569
					37.927225,55.589017
					37.927562,55.589314
					37.927186,55.589605
					37.925802,55.589666
					37.925373,55.589981
					37.924170,55.590567
					37.923399,55.590927
					37.921747,55.591224
					37.920878,55.592291
					37.918711,55.593019
					37.918110,55.593443
					37.917938,55.594183
					37.918346,55.594959
					37.919578,55.596654
					37.922015,55.598681
					37.922273,55.599493
					37.923067,55.599808
					37.923474,55.600948
					37.926843,55.601954
					37.928624,55.603105
					37.929010,55.604136
					37.930491,55.604075
					37.936757,55.603881
					37.938066,55.604960
					37.937679,55.606417
					37.938173,55.605493
					37.939696,55.605118
					37.940404,55.605033
					37.940662,55.603821
					37.940297,55.603287
					37.939310,55.602972
					37.939439,55.599869
					37.938744,55.600017
					37.940040,55.588556
					37.940941,55.588120
					37.941971,55.587223
					37.943130,55.586471
					37.945833,55.585961
					37.947893,55.585767
					37.950339,55.585476
					37.952185,55.587611
					37.951798,55.593819
					37.950447,55.594837
					37.949653,55.595989
					37.948730,55.596729
					37.949073,55.597929
					37.949159,55.598826
					37.948816,55.599735
					37.948022,55.601699
					37.948322,55.602572
					37.947679,55.603687
					37.945361,55.603105
					37.945104,55.603736
					37.947679,55.604221
					37.947679,55.605239
					37.943430,55.608342
					37.940898,55.610451
					37.941070,55.612147
					37.941113,55.612462
					37.945833,55.613699
					37.946992,55.612099
					37.949309,55.611396
					37.953386,55.612123
					37.958064,55.608172
					37.959158,55.606881
					37.959319,55.606118
					37.959995,55.605564
					37.960596,55.605112
					37.961358,55.604481
					37.961057,55.604196
					37.960188,55.604045
					37.960006,55.603330
					37.960403,55.603154
					37.959738,55.602481
					37.959845,55.602039
					37.960296,55.601893
					37.962570,55.601499
					37.962441,55.600966
					37.963815,55.600560
					37.963845,55.596241
					37.963922,55.590460
					37.964008,55.589265
					37.963978,55.585362
					37.966175,55.584967
					37.970037,55.585319
					37.973299,55.585040
					37.975659,55.585549
					37.979822,55.584785
					37.982054,55.583245
					37.981668,55.582335
					37.978449,55.581971
					37.970316,55.582105
					37.964373,55.582517
					37.963343,55.582080
					37.962377,55.581171
					37.962377,55.579570
					37.962141,55.577835
					37.961733,55.577932
					37.960854,55.577787
					37.960064,55.577020
					37.958407,55.576404
					37.957811,55.576006
				</coordinates>
			</LineString>
		</Placemark>
	</Document>
</kml>